STARLINK-34622          
1 66015C 25232L   26097.35673611  .00020403  00000+0  68861-3 0   977
2 66015  53.1608 330.9378 0001034  82.8383 216.4448 15.30137799    11
STARLINK-35243          
1 66016C 25232M   26097.25534722 -.00019599  00000+0 -66049-3 0   978
2 66016  53.1610 331.4794 0001298  81.6847 343.9026 15.30203983    14
STARLINK-35398          
1 66017C 25232N   26097.32826389 -.00028030  00000+0 -94467-3 0   975
2 66017  53.1595 330.9727 0001355  79.9159 114.8164 15.30207007    16
STARLINK-35376          
1 66018C 25232P   26097.24701389 -.00009447  00000+0 -31837-3 0   972
2 66018  53.1609 331.5426 0001098  89.7955 278.2248 15.30198558    11
STARLINK-35382          
1 66019C 25232Q   26097.34076389 -.00046643  00000+0 -15722-2 0   972
2 66019  53.1604 330.9681 0001161  81.4321 153.1133 15.30211950    16
STARLINK-35430          
1 66020C 25232R   26097.26784722 -.00023832  00000+0 -80291-3 0   971
2 66020  53.1572 331.1046 0001067 109.9176 187.3649 15.30216686    11
STARLINK-35432          
1 66021C 25232S   26097.32618056 -.00015382  00000+0 -51853-3 0   978
2 66021  53.1583 330.9021 0001270  61.1130 162.7735 15.30193030    19
STARLINK-35340          
1 66022C 25232T   26097.30743056 -.00041592  00000+0 -14019-2 0   970
2 66022  53.1575 330.8496 0001069  91.9669  98.4541 15.30210436    10
STARLINK-35394          
1 66023C 25232U   26097.29840278 -.00032128  00000+0 -10830-2 0   975
2 66023  53.1577 330.8222 0001001  91.2282  84.3328 15.30203255    18
STARLINK-35410          
1 66024C 25232V   26097.35534722 -.00045782  00000+0 -15429-2 0   976
2 66024  53.1602 330.4058 0000869  63.9445 141.0774 15.30218540    18
STARLINK-35280          
1 66025C 25232W   26097.33381944 -.00026883  00000+0 -90616-3 0   974
2 66025  53.1589 330.5869 0001255  85.6496 320.0211 15.30200978    12
STARLINK-34812          
1 66026C 25232X   26097.26368056 -.00016073  00000+0 -54176-3 0   977
2 66026  53.1606 331.4975 0001230  71.2090  11.2277 15.30198222    14
STARLINK-35341          
1 66027C 25232Y   26097.24493056 -.00006624  00000+0 -22331-3 0   974
2 66027  53.1609 331.5562 0001267  84.7832 265.9625 15.30186223    17
STARLINK-35339          
1 66028C 25232Z   26097.28590278 -.00030954  00000+0 -10433-2 0   975
2 66028  53.1603 331.2264 0001074  94.4731 191.8829 15.30205909    16
STARLINK-35399          
1 66029C 25232AA  26097.26576389 -.00037201  00000+0 -12522-2 0   974
2 66029  53.1608 331.4124 0001160  76.4248  52.2960 15.30250894    17
STARLINK-35431          
1 66030C 25232AB  26097.32548611 -.00032969  00000+0 -11113-2 0   971
2 66030  53.1608 331.0644 0001326  58.9839  73.9142 15.30205272    19
STARLINK-35326          
1 66031C 25232AC  26097.33451389 -.00035305  00000+0 -11900-2 0   979
2 66031  53.1609 331.0647 0001227  94.6840  64.7092 15.30208061    14
STARLINK-35311          
1 66032C 25232AD  26097.24354167 -.00000171  00000+0 -57651-5 0   975
2 66032  53.1598 331.3725 0001094  71.6963   4.4490 15.30190793    10
STARLINK-35552          
1 66058C 25235A   26097.28798611 -.00030718  00000+0 -10354-2 0   972
2 66058  53.1585 109.9803 0001359  83.2855 288.2350 15.30204030    10
STARLINK-35560          
1 66059C 25235B   26097.31506944 -.00039245  00000+0 -13228-2 0   970
2 66059  53.1588 112.3079 0001340  83.9388 294.3107 15.30209673    11
STARLINK-35558          
1 66060C 25235C   26097.34215278 -.00003163  00000+0 -10662-3 0   972
2 66060  53.1572 112.4722 0001299  88.0901 294.0239 15.30186435    15
STARLINK-35566          
1 66061C 25235D   26097.32201389 -.00018617  00000+0 -62753-3 0   977
2 66061  53.1587 112.0677 0001393  78.7479  82.4783 15.30197307    11
STARLINK-35421          
1 66062C 25235E   26097.24631944 -.00033737  00000+0 -11372-2 0   973
2 66062  53.1576 112.7763 0001210  85.9922 197.7122 15.30204687    11
STARLINK-35562          
1 66063C 25235F   26097.34493056 -.00020567  00000+0 -69329-3 0   978
2 66063  53.1577 112.5465 0001339  83.3574 267.5427 15.30196721    10
STARLINK-35542          
1 66064C 25235G   26097.32618056 -.00058365  00000+0 -19672-2 0   978
2 66064  53.1573 112.4304 0001285  84.9459 267.3051 15.30218219    15
STARLINK-35375          
1 66065C 25235H   26097.30465278 -.00032911  00000+0 -11093-2 0   971
2 66065  53.1574 112.7144 0001326  84.5973  55.9281 15.30204783    12
STARLINK-35179          
1 66066C 25235J   26097.33034722 -.00036627  00000+0 -12347-2 0   972
2 66066  53.1570 112.4556 0001278  78.0950 273.8572 15.30202765    14
STARLINK-35401          
1 66067C 25235K   26097.32062500 -.00052834  00000+0 -17809-2 0   973
2 66067  53.1580 112.3609 0000805  82.1627 285.9978 15.30214324    14
STARLINK-35422          
1 66068C 25235L   26097.27965278 -.00033331  00000+0 -11235-2 0   970
2 66068  53.1592 112.4007 0001359  79.6498 138.2921 15.30205100    13
STARLINK-35279          
1 66069C 25235M   26097.31923611  .00011119  00000+0  37489-3 0   979
2 66069  53.1591 112.1475 0001364  92.3115  18.6024 15.30174502    19
STARLINK-35295          
1 66070C 25235N   26097.29354167 -.00032308  00000+0 -10891-2 0   974
2 66070  53.1572 112.7142 0001261  85.9676  16.5887 15.30202901    12
STARLINK-35323          
1 66071C 25235P   26097.27895833 -.00040981  00000+0 -13812-2 0   975
2 66071  53.1583 112.1966 0001406  87.8037 231.0068 15.30211451    11
STARLINK-35299          
1 66072C 25235Q   26097.30395833 -.00035451  00000+0 -11949-2 0   970
2 66072  53.1575 112.4967 0001228  86.5565 160.6590 15.30206449    19
STARLINK-35274          
1 66073C 25235R   26097.23590278 -.00061070  00000+0 -20580-2 0   970
2 66073  53.1574 112.9972 0001181  86.6291  52.3990 15.30226605    12
STARLINK-35321          
1 66074C 25235S   26097.25048611 -.00034414  00000+0 -11599-2 0   974
2 66074  53.1568 112.8595 0001188  89.8016 164.5222 15.30208647    13
STARLINK-35131          
1 66075C 25235T   26097.33104167  .00066855  00000+0  22547-2 0   970
2 66075  53.1584 112.2754 0001575  84.2313 358.7037 15.30137552    19
STARLINK-34801          
1 66076C 25235U   26097.30395833 -.00037622  00000+0 -12681-2 0   970
2 66076  53.1573 112.5407 0001217  88.3024 135.6498 15.30208516    15
STARLINK-35129          
1 66077C 25235V   26097.31298611 -.00032309  00000+0 -10892-2 0   977
2 66077  53.1578 112.4290 0001052  81.5653 227.0447 15.30201229    14
STARLINK-35116          
1 66078C 25235W   26097.35048611 -.00018230  00000+0 -61447-3 0   975
2 66078  53.1593 112.0345 0001335  83.1224 182.6941 15.30197512    19
STARLINK-35402          
1 66079C 25235X   26097.31993056 -.00021489  00000+0 -72436-3 0   974
2 66079  53.1587 112.1069 0001356  79.8490  52.4470 15.30198243    10
STARLINK-35325          
1 66080C 25235Y   26097.25256944 -.00103580  00000+0 -34886-2 0   976
2 66080  53.1590 112.5587 0001326  90.2142 321.0145 15.30265482    17
STARLINK-35403          
1 66081C 25235Z   26097.32062500 -.00002821  00000+0 -95005-4 0   976
2 66081  53.1581 111.9669 0001161  87.9960 117.8332 15.30214530    17
STARLINK-35011          
1 66082C 25235AA  26097.30048611 -.00065323  00000+0 -22017-2 0   979
2 66082  53.1586 112.1288 0001141  68.8631 351.1473 15.30223138    17
STARLINK-35291          
1 66083C 25235AB  26097.27826389 -.00052390  00000+0 -17657-2 0   976
2 66083  53.1572 112.8171 0001298  88.0668 272.8295 15.30217600    16
STARLINK-35379          
1 66084C 25235AC  26097.31020833 -.00005512  00000+0 -18577-3 0   979
2 66084  53.1571 112.5291 0001274  84.4671 162.2656 15.30193324    13
STARLINK-35370          
1 66085C 25235AD  26097.23381944 -.00032964  00000+0 -11110-2 0   970
2 66085  53.1570 112.9526 0001302  83.5153  67.3093 15.30209587    14
STARLINK-35596          
1 66086C 25236A   26097.25326389 -.00011973  00000+0 -40351-3 0   973
2 66086  53.1598 331.5162 0001137  82.2242 267.9879 15.30200926    19
STARLINK-35563          
1 66087C 25236B   26097.34354167 -.00038946  00000+0 -13127-2 0   978
2 66087  53.1585 330.7398 0001122  89.6072 218.5060 15.30208135    18
STARLINK-35461          
1 66088C 25236C   26097.25812500 -.00017353  00000+0 -58495-3 0   976
2 66088  53.1570 330.9646 0001037  82.0884 202.4818 15.30194950    16
STARLINK-35571          
1 66089C 25236D   26097.34284722 -.00025014  00000+0 -84316-3 0   970
2 66089  53.1575 330.6747 0001077  82.3586 256.8267 15.30200269    19
STARLINK-35570          
1 66090C 25236E   26097.31090278 -.00037062  00000+0 -12493-2 0   972
2 66090  53.1580 330.6488 0000884  92.7218 157.6411 15.30206205    16
STARLINK-35532          
1 66091C 25236F   26097.24006944 -.00012093  00000+0 -40757-3 0   974
2 66091  53.1589 330.9078 0001324  79.7305 175.1178 15.30197755    10
STARLINK-35527          
1 66092C 25236G   26097.27340278 -.00007798  00000+0 -26303-3 0   976
2 66092  53.1603 331.3870 0001250  89.7265  28.9845 15.30167923    17
STARLINK-35500          
1 66093C 25236H   26097.33659722 -.00013978  00000+0 -47152-3 0   973
2 66093  53.1582 330.7363 0001276  76.7729 210.5555 15.30171340    18
STARLINK-35528          
1 66094C 25236J   26097.27409722 -.00026957  00000+0 -90870-3 0   976
2 66094  53.1572 330.9579 0001116  90.3135 247.3959 15.30199730    14
STARLINK-35559          
1 66095C 25236K   26097.31437500 -.00042843  00000+0 -14441-2 0   978
2 66095  53.1571 330.7363 0001166  92.4291 124.7271 15.30208883    19
STARLINK-34386          
1 66096C 25236L   26097.29076389 -.00038839  00000+0 -13090-2 0   979
2 66096  53.1574 330.7763 0000977  97.2803  24.6320 15.30210804    17
STARLINK-35613          
1 66097C 25236M   26097.27201389 -.00026124  00000+0 -88051-3 0   972
2 66097  53.1569 330.9562 0001399  90.9403 241.0959 15.30202461    19
STARLINK-34206          
1 66098C 25236N   26097.30465278 -.00017835  00000+0 -60077-3 0   973
2 66098  53.1605 331.2285 0001247  85.4336 211.1678 15.30218543    17
